[{"OBJECT_NAME":"STARLINK-5548","OBJECT_ID":"2023-058T","EPOCH":"2026-03-09T21:34:59.195136","MEAN_MOTION":15.0565475,"ECCENTRICITY":0.00016208,"INCLINATION":97.6035,"RA_OF_ASC_NODE":71.5075,"ARG_OF_PERICENTER":88.5983,"MEAN_ANOMALY":271.5429,"EPHEMERIS_TYPE":0,"CLASSIFICATION_TYPE":"U","NORAD_CAT_ID":56334,"ELEMENT_SET_NO":999,"REV_AT_EPOCH":15823,"BSTAR":0.00042818172,"MEAN_MOTION_DOT":6.124e-5,"MEAN_MOTION_DDOT":0},{"OBJECT_NAME":"CZ-6A DEB","OBJECT_ID":"2022-151SL","EPOCH":"2026-03-09T10:13:37.626816","MEAN_MOTION":15.13067162,"ECCENTRICITY":0.00442991,"INCLINATION":99.1095,"RA_OF_ASC_NODE":231.9477,"ARG_OF_PERICENTER":182.6933,"MEAN_ANOMALY":177.4061,"EPHEMERIS_TYPE":0,"CLASSIFICATION_TYPE":"U","NORAD_CAT_ID":54947,"ELEMENT_SET_NO":999,"REV_AT_EPOCH":17723,"BSTAR":0.0054047259,"MEAN_MOTION_DOT":0.00099065,"MEAN_MOTION_DDOT":0}]
